APRIZESAT 2             
1 28366U 04025A   22211.59944074  .00000039  00000+0  26022-4 0  9993
2 28366  98.1603  78.5228 0106919 204.8199 154.7824 14.36830854948010
SAUDICOMSAT 1           
1 28369U 04025D   22211.34197401  .00000127  00000+0  42055-4 0  9995
2 28369  98.4430 173.2494 0034404  45.1294 315.2686 14.52821696958072
SAUDICOMSAT 2           
1 28370U 04025E   22211.32272247  .00000088  00000+0  36152-4 0  9994
2 28370  98.5347 172.3437 0056646 231.1371 128.4760 14.47718773954836
APRIZESAT 1             
1 28372U 04025G   22211.18436270  .00000075  00000+0  31382-4 0  9994
2 28372  98.4957 172.4057 0046988 144.2486 216.1869 14.49819249956347
NANOSAT-1               
1 28493U 04049B   22211.54621208  .00000256  00000+0  46725-4 0  9999
2 28493  98.1151 312.3725 0005272 142.4113 217.7464 14.74046231946213
SAUDICOMSAT 7           
1 31119U 07012C   22211.33055254  .00000172  00000+0  43201-4 0  9993
2 31119  98.1858 156.7890 0058845 317.8496  41.8188 14.62126900814970
SAUDICOMSAT 6           
1 31121U 07012E   22211.30550049  .00000184  00000+0  47853-4 0  9995
2 31121  98.2269 152.0529 0077433  59.8919 300.9927 14.58906100813191
SAUDICOMSAT 5           
1 31124U 07012H   22211.27845786  .00000156  00000+0  38809-4 0  9999
2 31124  98.1547 158.2941 0049940 262.9835  96.5686 14.63852835815850
SAUDICOMSAT 3           
1 31125U 07012J   22211.28400593  .00000187  00000+0  43111-4 0  9990
2 31125  98.1203 159.7539 0042257 207.6081 152.2879 14.65676929816789
SAUDICOMSAT 4           
1 31127U 07012L   22211.31028360  .00000200  00000+0  49823-4 0  9996
2 31127  98.2086 155.1471 0067905   6.5939 353.6139 14.60636863814132
APRIZESAT 4             
1 35684U 09041D   22211.51372770  .00000163  00000+0  29126-4 0  9993
2 35684  98.3102 226.6347 0046076 212.2471 147.5921 14.79686893701438
APRIZESAT 3             
1 35686U 09041F   22211.20193039  .00000356  00000+0  43489-4 0  9992
2 35686  98.1071 298.8312 0073011  47.4761 313.2590 14.87989146704966
AISSAT 1                
1 36797U 10035C   22211.51431102  .00000466  00000+0  58429-4 0  9993
2 36797  98.2394  37.0339 0011714  36.3993 323.8016 14.87183988652970
S-NET D                 
1 43186U 18014G   22211.17941951  .00000077  00000+0  11443-4 0  9991
2 43186  97.6548 116.1007 0011071 147.0854 213.1059 14.98039366245313
S-NET B                 
1 43187U 18014H   22211.51358452  .00000066  00000+0  10450-4 0  9993
2 43187  97.6543 116.3779 0011079 146.1428 214.0504 14.98037225245364
S-NET A                 
1 43188U 18014J   22211.44708329  .00000073  00000+0  11041-4 0  9993
2 43188  97.6547 116.3784 0011076 146.4765 213.7160 14.98036697245354
S-NET C                 
1 43189U 18014K   22211.44785872  .00000081  00000+0  11760-4 0  9999
2 43189  97.6541 116.3015 0011056 146.5592 213.6330 14.98033419243909
SALSAT                  
1 46495U 20068K   22211.32492521  .00001538  00000+0  11353-3 0  9992
2 46495  97.7302 152.6456 0017502 129.4245 230.8534 15.04660996100630
